{
    "links": {
        "self": "http://www.neowsapp.com/rest/v1/neo/3713005?api_key=iIulBulltgU6a56xZRHN4H3l9WmuAYTsLGpBGhQ2"
    },
    "id": "3713005",
    "neo_reference_id": "3713005",
    "name": "(2015 EV)",
    "designation": "2015 EV",
    "nasa_jpl_url": "http://ssd.jpl.nasa.gov/sbdb.cgi?sstr=3713005",
    "absolute_magnitude_h": 22.5,
    "estimated_diameter": {
        "kilometers": {
            "estimated_diameter_min": 0.0840533402,
            "estimated_diameter_max": 0.1879489824
        },
        "meters": {
            "estimated_diameter_min": 84.0533402073,
            "estimated_diameter_max": 187.9489824394
        },
        "miles": {
            "estimated_diameter_min": 0.0522283081,
            "estimated_diameter_max": 0.1167860472
        },
        "feet": {
            "estimated_diameter_min": 275.7655606856,
            "estimated_diameter_max": 616.6305395464
        }
    },
    "is_potentially_hazardous_asteroid": false,
    "close_approach_data": [
        {
            "close_approach_date": "2015-03-15",
            "close_approach_date_full": "2015-Mar-15 22:49",
            "epoch_date_close_approach": 1426459740000,
            "relative_velocity": {
                "kilometers_per_second": "36.7700009563",
                "kilometers_per_hour": "132372.0034428586",
                "miles_per_hour": "82250.8151392584"
            },
            "miss_distance": {
                "astronomical": "0.1014937765",
                "lunar": "39.4810790585",
                "kilometers": "15183252.782656055",
                "miles": "9434435.798541359"
            },
            "orbiting_body": "Earth"
        }
    ],
    "orbital_data": {
        "orbit_id": "6",
        "orbit_determination_date": "2017-04-06 08:35:11",
        "first_observation_date": "2015-03-11",
        "last_observation_date": "2015-03-15",
        "data_arc_in_days": 4,
        "observations_used": 50,
        "orbit_uncertainty": "9",
        "minimum_orbit_intersection": ".00621997",
        "jupiter_tisserand_invariant": "2.903",
        "epoch_osculation": "2457093.5",
        "eccentricity": ".9602607237404592",
        "semi_major_axis": "2.031851195042979",
        "inclination": "11.35643554445103",
        "ascending_node_longitude": "168.9270637219879",
        "orbital_period": "1057.879679439537",
        "perihelion_distance": ".08074429595809099",
        "perihelion_argument": "152.924128619075",
        "aphelion_distance": "3.982958094127866",
        "perihelion_time": "2457133.045365281242",
        "mean_anomaly": "346.5425796733429",
        "mean_motion": ".3403033511247021",
        "equinox": "J2000",
        "orbit_class": {
            "orbit_class_type": "APO",
            "orbit_class_description": "Near-Earth asteroid orbits which cross the Earth’s orbit similar to that of 1862 Apollo",
            "orbit_class_range": "a (semi-major axis) > 1.0 AU; q (perihelion) < 1.017 AU"
        }
    },
    "is_sentry_object": false
}